NORAD_CAT_ID,OBJECT_NAME,OBJECT_TYPE,EPOCH,MEAN_MOTION,ECCENTRICITY,INCLINATION,RA_OF_ASC_NODE,ARG_OF_PERICENTER,MEAN_ANOMALY,BSTAR,MEAN_MOTION_DOT,MEAN_MOTION_DDOT,TLE_LINE0,TLE_LINE1,TLE_LINE2,SEMIMAJOR_AXIS,PERIOD,APOGEE,PERIGEE,DECAYED
52378.0,STARLINK-3806,PAYLOAD,2023-10-04 20:23:05,15.08850713,0.0001509,53.2163,210.3029,91.3329,268.7836,0.0004889,7.504e-05,0.0,0 STARLINK-3806,1 52378U 22045AZ  23277.84937003  .00007504  00000-0  48890-3 0  9991,2 52378  53.2163 210.3029 0001509  91.3329 268.7836 15.08850713 82048,6917.848,95.437,540.757,538.669,0.0
52378.0,STARLINK-3806,PAYLOAD,2023-10-05 05:55:23,15.08881005,0.0001607,53.2163,208.5169,90.5742,269.5434,0.0015351,0.00024255,0.0,0 STARLINK-3806,1 52378U 22045AZ  23278.24680040  .00024255  00000-0  15351-2 0  9999,2 52378  53.2163 208.5169 0001607  90.5742 269.5434 15.08881005 82109,6917.755,95.435,540.732,538.508,0.0
52378.0,STARLINK-3806,PAYLOAD,2023-10-05 12:16:56,15.08862088,0.0002925,53.2151,207.3252,71.1952,288.9357,0.00060117,9.298e-05,0.0,0 STARLINK-3806,1 52378U 22045AZ  23278.51176657  .00009298  00000-0  60117-3 0  9994,2 52378  53.2151 207.3252 0002925  71.1952 288.9357 15.08862088 82141,6917.813,95.436,541.701,537.654,0.0
52378.0,STARLINK-3806,PAYLOAD,2023-10-06 04:10:47,15.08848306,0.0001672,53.2163,204.3555,84.8375,275.2808,0.000511,7.856e-05,0.0,0 STARLINK-3806,1 52378U 22045AZ  23279.17416376  .00007856  00000-0  51100-3 0  9992,2 52378  53.2163 204.3555 0001672  84.8375 275.2808 15.08848306 82243,6917.855,95.437,540.877,538.563,0.0
52378.0,STARLINK-3806,PAYLOAD,2023-10-06 12:07:43,15.08833689,0.0001427,53.2149,202.8642,88.3754,271.7401,0.00087795,0.0001371,0.0,0 STARLINK-3806,1 52378U 22045AZ  23279.50536888  .00013710  00000-0  87795-3 0  9995,2 52378  53.2149 202.8642 0001427  88.3754 271.7401 15.08833689 82298,6917.9,95.438,540.752,538.777,0.0
52378.0,STARLINK-3806,PAYLOAD,2023-10-07 00:50:49,15.08834371,0.0001628,53.2156,200.4855,89.9413,270.1766,0.00085961,0.00013417,0.0,0 STARLINK-3806,1 52378U 22045AZ  23280.03529306  .00013417  00000-0  85961-3 0  9999,2 52378  53.2156 200.4855 0001628  89.9413 270.1766 15.08834371 82373,6917.898,95.438,540.889,538.636,0.0
52378.0,STARLINK-3806,PAYLOAD,2023-10-07 11:58:31,15.08838799,0.0001559,53.2153,198.408,84.3414,275.7756,0.00066528,0.00010315,0.0,0 STARLINK-3806,1 52378U 22045AZ  23280.49897500  .00010315  00000-0  66528-3 0  9995,2 52378  53.2153 198.4080 0001559  84.3414 275.7756 15.08838799 82445,6917.884,95.438,540.828,538.671,0.0
52378.0,STARLINK-3806,PAYLOAD,2023-10-08 11:49:18,15.08845615,0.0001355,53.2152,193.9461,99.0537,261.0608,0.00041198,6.276e-05,0.0,0 STARLINK-3806,1 52378U 22045AZ  23281.49257416  .00006276  00000-0  41198-3 0  9999,2 52378  53.2152 193.9461 0001355  99.0537 261.0608 15.08845615 82595,6917.863,95.437,540.666,538.791,0.0
52378.0,STARLINK-3806,PAYLOAD,2023-10-08 18:10:50,15.0884564,0.0001528,53.2157,192.7562,101.628,258.4884,0.00038245,5.805e-05,0.0,0 STARLINK-3806,1 52378U 22045AZ  23281.75753453  .00005805  00000-0  38245-3 0  9996,2 52378  53.2157 192.7562 0001528 101.6280 258.4884 15.08845640 82635,6917.863,95.437,540.785,538.671,0.0
52378.0,STARLINK-3806,PAYLOAD,2023-10-09 11:40:05,15.08853306,0.0001717,53.217,189.4872,81.1258,278.9928,0.00038891,5.909e-05,0.0,0 STARLINK-3806,1 52378U 22045AZ  23282.48617130  .00005909  00000-0  38891-3 0  9990,2 52378  53.2170 189.4872 0001717  81.1258 278.9928 15.08853306 82740,6917.84,95.437,540.893,538.517,0.0
52378.0,STARLINK-3806,PAYLOAD,2023-10-09 21:12:24,15.08843681,0.0001867,53.2154,187.7022,98.4778,261.6426,0.00011444,1.534e-05,0.0,0 STARLINK-3806,1 52378U 22045AZ  23282.88361378  .00001534  00000-0  11444-3 0  9999,2 52378  53.2154 187.7022 0001867  98.4778 261.6426 15.08843681 82808,6917.869,95.437,541.026,538.443,0.0
52378.0,STARLINK-3806,PAYLOAD,2023-10-10 00:23:10,15.08846866,0.0001747,53.2169,187.1082,104.793,255.3256,0.00033357,5.026e-05,0.0,0 STARLINK-3806,1 52378U 22045AZ  23283.01609295  .00005026  00000-0  33357-3 0  9995,2 52378  53.2169 187.1082 0001747 104.7930 255.3256 15.08846866 82823,6917.859,95.437,540.933,538.516,0.0
52378.0,STARLINK-3806,PAYLOAD,2023-10-10 17:52:25,15.08840091,0.0001803,53.2165,183.8379,97.1894,262.9303,0.00065176,0.000101,0.0,0 STARLINK-3806,1 52378U 22045AZ  23283.74473968  .00010100  00000-0  65176-3 0  9994,2 52378  53.2165 183.8379 0001803  97.1894 262.9303 15.08840091 82931,6917.88,95.438,540.992,538.498,0.0
52378.0,STARLINK-3806,PAYLOAD,2023-10-10 21:03:11,15.08835793,0.0001922,53.2163,183.2429,108.4343,251.6859,0.00031,4.648e-05,0.0,0 STARLINK-3806,1 52378U 22045AZ  23283.87721974  .00004648  00000-0  31000-3 0  9990,2 52378  53.2163 183.2429 0001922 108.4343 251.6859 15.08835793 82952,6917.893,95.438,541.088,538.429,0.0
52378.0,STARLINK-3806,PAYLOAD,2023-10-11 09:46:17,15.08837981,0.0001696,53.2172,180.8629,86.9381,273.1805,0.00023143,3.397e-05,0.0,0 STARLINK-3806,1 52378U 22045AZ  23284.40714172  .00003397  00000-0  23143-3 0  9991,2 52378  53.2172 180.8629 0001696  86.9381 273.1805 15.08837981 83038,6917.887,95.438,540.925,538.578,0.0
52378.0,STARLINK-3806,PAYLOAD,2023-10-12 09:37:04,15.08838095,0.0001363,53.2167,176.4045,91.9904,268.1244,0.00023484,3.451e-05,0.0,0 STARLINK-3806,1 52378U 22045AZ  23285.40074319  .00003451  00000-0  23484-3 0  9993,2 52378  53.2167 176.4045 0001363  91.9904 268.1244 15.08838095 83187,6917.886,95.438,540.694,538.808,0.0
52378.0,STARLINK-3806,PAYLOAD,2023-10-12 22:20:09,15.08844937,0.0001278,53.2164,174.0255,86.1958,273.918,0.00020656,3.001e-05,0.0,0 STARLINK-3806,1 52378U 22045AZ  23285.93066098  .00003001  00000-0  20656-3 0  9995,2 52378  53.2164 174.0255 0001278  86.1958 273.9180 15.08844937 83265,6917.865,95.437,540.614,538.846,0.0
52378.0,STARLINK-3806,PAYLOAD,2023-10-12 23:55:32,15.08849017,0.0001275,53.2168,173.7293,98.7871,261.3265,0.00028755,4.293e-05,0.0,0 STARLINK-3806,1 52378U 22045AZ  23285.99689851  .00004293  00000-0  28755-3 0  9991,2 52378  53.2168 173.7293 0001275  98.7871 261.3265 15.08849017 83277,6917.853,95.437,540.6,538.836,0.0
52378.0,STARLINK-3806,PAYLOAD,2023-10-13 09:27:50,15.08851521,0.0001222,53.2163,171.9452,93.8186,266.2946,0.00026955,4.006e-05,0.0,0 STARLINK-3806,1 52378U 22045AZ  23286.39433642  .00004006  00000-0  26955-3 0  9993,2 52378  53.2163 171.9452 0001222  93.8186 266.2946 15.08851521 83336,6917.845,95.437,540.556,538.865,0.0
52378.0,STARLINK-3806,PAYLOAD,2023-10-13 20:35:32,15.08844783,0.000187,53.2168,169.862,86.7418,273.3788,0.00014429,2.009e-05,0.0,0 STARLINK-3806,1 52378U 22045AZ  23286.85802048  .00002009  00000-0  14429-3 0  9998,2 52378  53.2168 169.8620 0001870  86.7418 273.3788 15.08844783 83405,6917.866,95.437,541.024,538.437,0.0
52378.0,STARLINK-3806,PAYLOAD,2023-10-13 22:10:56,15.08842508,0.0001563,53.2171,169.5639,87.7458,272.3713,6.031e-05,6.72e-06,0.0,0 STARLINK-3806,1 52378U 22045AZ  23286.92426000  .00000672  00000-0  60310-4 0  9991,2 52378  53.2171 169.5639 0001563  87.7458 272.3713 15.08842508 83411,6917.873,95.437,540.819,538.656,0.0
52378.0,STARLINK-3806,PAYLOAD,2023-10-14 01:21:41,15.08853191,0.0001171,53.2159,168.9701,86.3184,273.7942,0.00024056,3.544e-05,0.0,0 STARLINK-3806,1 52378U 22045AZ  23287.05673456  .00003544  00000-0  24056-3 0  9992,2 52378  53.2159 168.9701 0001171  86.3184 273.7942 15.08853191 83437,6917.84,95.437,540.515,538.895,0.0
52378.0,STARLINK-3806,PAYLOAD,2023-10-14 09:18:38,15.08822572,0.0001505,53.2162,167.483,87.4208,272.6956,-0.00027963,-4.733e-05,0.0,0 STARLINK-3806,1 52378U 22045AZ  23287.38794859 -.00004733  00000-0 -27963-3 0  9992,2 52378  53.2162 167.4830 0001505  87.4208 272.6956 15.08822572 83485,6917.934,95.439,540.84,538.758,0.0
52378.0,STARLINK-3806,PAYLOAD,2023-10-14 20:26:21,15.08810219,0.0001252,53.2154,165.401,91.8852,268.2283,-0.00037236,-6.204e-05,0.0,0 STARLINK-3806,1 52378U 22045AZ  23287.85164000 -.00006204  00000-0 -37236-3 0  9992,2 52378  53.2154 165.4010 0001252  91.8852 268.2283 15.08810219 83554,6917.971,95.439,540.703,538.97,0.0
52378.0,STARLINK-3806,PAYLOAD,2023-10-14 22:01:44,15.08811982,0.0001535,53.2161,165.1035,87.7868,272.33,-0.00040132,-6.664e-05,0.0,0 STARLINK-3806,1 52378U 22045AZ  23287.91788127 -.00006664  00000-0 -40132-3 0  9990,2 52378  53.2161 165.1035 0001535  87.7868 272.3300 15.08811982 83566,6917.966,95.439,540.893,538.769,0.0
52378.0,STARLINK-3806,PAYLOAD,2023-10-15 09:09:26,15.08828242,0.0001162,53.2157,163.023,96.4647,263.6478,0.00012376,1.682e-05,0.0,0 STARLINK-3806,1 52378U 22045AZ  23288.38156031  .00001682  00000-0  12376-3 0  9997,2 52378  53.2157 163.0230 0001162  96.4647 263.6478 15.08828242 83637,6917.916,95.438,540.585,538.977,0.0
52378.0,STARLINK-3806,PAYLOAD,2023-10-15 21:52:31,15.08846526,0.0001047,53.214,160.6449,97.8626,262.2484,0.00047117,7.22e-05,0.0,0 STARLINK-3806,1 52378U 22045AZ  23288.91147709  .00007220  00000-0  47117-3 0  9993,2 52378  53.2140 160.6449 0001047  97.8626 262.2484 15.08846526 83714,6917.86,95.437,540.45,539.001,0.0
52378.0,STARLINK-3806,PAYLOAD,2023-10-16 09:00:13,15.08849797,0.0001213,53.2144,158.5609,100.9955,259.1174,0.00050676,7.789e-05,0.0,0 STARLINK-3806,1 52378U 22045AZ  23289.37515632  .00007789  00000-0  50676-3 0  9992,2 52378  53.2144 158.5609 0001213 100.9955 259.1174 15.08849797 83789,6917.85,95.437,540.555,538.876,0.0
52378.0,STARLINK-3806,PAYLOAD,2023-10-17 00:54:04,15.08858634,0.0001183,53.2137,155.5879,94.882,265.2307,0.00041837,6.38e-05,0.0,0 STARLINK-3806,1 52378U 22045AZ  23290.03754869  .00006380  00000-0  41837-3 0  9999,2 52378  53.2137 155.5879 0001183  94.8820 265.2307 15.08858634 83882,6917.823,95.436,540.507,538.87,0.0
52378.0,STARLINK-3806,PAYLOAD,2023-10-17 21:34:04,15.088576,0.000166,53.215,151.7223,95.5418,264.5763,0.0001235,1.679e-05,0.0,0 STARLINK-3806,1 52378U 22045AZ  23290.89866131  .00001679  00000-0  12350-3 0  9993,2 52378  53.2150 151.7223 0001660  95.5418 264.5763 15.08857600 84015,6917.827,95.436,540.84,538.543,0.0
